{"type": "FeatureCollection", "features": [ {"type": "Feature", "properties": {"norad_id": 29782, "name": "FENGYUN 1C DEB", "group": "fengyun-1c-debris", "lat": 58.24347011597475, "lon": -114.30811378637628, "alt_km": 824.3117958418179, "timestamp": "2025-12-22T22:44:21.246714+00:00", "meta": {"OBJECT_NAME": "FENGYUN 1C DEB", "OBJECT_ID": "1999-025BY", "EPOCH": "2025-12-22T03:44:52.022688", "MEAN_MOTION": 14.1170493, "ECCENTRICITY": 0.00557596, "INCLINATION": 99.0993, "RA_OF_ASC_NODE": 49.8839, "ARG_OF_PERICENTER": 177.2527, "MEAN_ANOMALY": 244.4349, "EPHEMERIS_TYPE": 0, "CLASSIFICATION_TYPE": "U", "NORAD_CAT_ID": 29782, "ELEMENT_SET_NO": 999, "REV_AT_EPOCH": 96804, "BSTAR": 0.0012817694, "MEAN_MOTION_DOT": 2.322e-05, "MEAN_MOTION_DDOT": 0}, "tle": {"line1": "1 29782U 99025BY  25356.15615767  .00002322  00000+0  12818-2 0  9992", "line2": "2 29782  99.0993  49.8839 0055759 177.2527 244.4349 14.11704930968049"}}, "geometry": {"type": "Point", "coordinates": [-114.30811378637628, 58.24347011597475]}}, {"type": "Feature", "properties": {"norad_id": 29784, "name": "FENGYUN 1C DEB", "group": "fengyun-1c-debris", "lat": -65.87746846670136, "lon": 75.43871910674407, "alt_km": 756.9657864198871, "timestamp": "2025-12-22T22:44:21.246724+00:00", "meta": {"OBJECT_NAME": "FENGYUN 1C DEB", "OBJECT_ID": "1999-025CA", "EPOCH": "2025-12-22T07:03:44.889984", "MEAN_MOTION": 14.30607971, "ECCENTRICITY": 0.00591475, "INCLINATION": 98.9466, "RA_OF_ASC_NODE": 275.364, "ARG_OF_PERICENTER": 269.1547, "MEAN_ANOMALY": 216.335, "EPHEMERIS_TYPE": 0, "CLASSIFICATION_TYPE": "U", "NORAD_CAT_ID": 29784, "ELEMENT_SET_NO": 999, "REV_AT_EPOCH": 98496, "BSTAR": 0.00043759096, "MEAN_MOTION_DOT": 1.117e-05, "MEAN_MOTION_DDOT": 0}, "tle": {"line1": "1 29784U 99025CA  25356.29426956  .00001117  00000+0  43759-3 0  9999", "line2": "2 29784  98.9466 275.3640 0059147 269.1547 216.3350 14.30607971984965"}}, "geometry": {"type": "Point", "coordinates": [75.43871910674407, -65.87746846670136]}}, {"type": "Feature", "properties": {"norad_id": 29786, "name": "FENGYUN 1C DEB", "group": "fengyun-1c-debris", "lat": 61.60052599375534, "lon": -149.62675377381976, "alt_km": 907.5117978854596, "timestamp": "2025-12-22T22:44:21.246735+00:00", "meta": {"OBJECT_NAME": "FENGYUN 1C DEB", "OBJECT_ID": "1999-025CC", "EPOCH": "2025-12-22T12:41:06.129888", "MEAN_MOTION": 14.09090625, "ECCENTRICITY": 0.0076837, "INCLINATION": 98.7348, "RA_OF_ASC_NODE": 13.4476, "ARG_OF_PERICENTER": 275.0134, "MEAN_ANOMALY": 238.5085, "EPHEMERIS_TYPE": 0, "CLASSIFICATION_TYPE": "U", "NORAD_CAT_ID": 29786, "ELEMENT_SET_NO": 999, "REV_AT_EPOCH": 97298, "BSTAR": 0.00016618208, "MEAN_MOTION_DOT": 2.53e-06, "MEAN_MOTION_DDOT": 0}, "tle": {"line1": "1 29786U 99025CC  25356.52854317  .00000253  00000+0  16618-3 0  9997", "line2": "2 29786  98.7348  13.4476 0076837 275.0134 238.5085 14.09090625972983"}}, "geometry": {"type": "Point", "coordinates": [-149.62675377381976, 61.60052599375534]}}, {"type": "Feature", "properties": {"norad_id": 29788, "name": "FENGYUN 1C DEB", "group": "fengyun-1c-debris", "lat": -46.33809406754674, "lon": 77.91893014273883, "alt_km": 839.1675048210618, "timestamp": "2025-12-22T22:44:21.246745+00:00", "meta": {"OBJECT_NAME": "FENGYUN 1C DEB", "OBJECT_ID": "1999-025CE", "EPOCH": "2025-12-22T04:41:53.191392", "MEAN_MOTION": 14.26038595, "ECCENTRICITY": 0.00431286, "INCLINATION": 98.7834, "RA_OF_ASC_NODE": 67.8422, "ARG_OF_PERICENTER": 162.7301, "MEAN_ANOMALY": 253.1445, "EPHEMERIS_TYPE": 0, "CLASSIFICATION_TYPE": "U", "NORAD_CAT_ID": 29788, "ELEMENT_SET_NO": 999, "REV_AT_EPOCH": 97490, "BSTAR": 0.001459993, "MEAN_MOTION_DOT": 3.477e-05, "MEAN_MOTION_DDOT": 0}, "tle": {"line1": "1 29788U 99025CE  25356.19575453  .00003477  00000+0  14600-2 0  9992", "line2": "2 29788  98.7834  67.8422 0043128 162.7301 253.1445 14.26038595974908"}}, "geometry": {"type": "Point", "coordinates": [77.91893014273883, -46.33809406754674]}}, {"type": "Feature", "properties": {"norad_id": 29789, "name": "FENGYUN 1C DEB", "group": "fengyun-1c-debris", "lat": -11.177956041906054, "lon": -178.80355570791548, "alt_km": 1076.3615151181511, "timestamp": "2025-12-22T22:44:21.246755+00:00", "meta": {"OBJECT_NAME": "FENGYUN 1C DEB", "OBJECT_ID": "1999-025CF", "EPOCH": "2025-12-20T18:15:53.076672", "MEAN_MOTION": 13.54257877, "ECCENTRICITY": 0.02983159, "INCLINATION": 99.4514, "RA_OF_ASC_NODE": 177.2174, "ARG_OF_PERICENTER": 258.5605, "MEAN_ANOMALY": 232.7158, "EPHEMERIS_TYPE": 0, "CLASSIFICATION_TYPE": "U", "NORAD_CAT_ID": 29789, "ELEMENT_SET_NO": 999, "REV_AT_EPOCH": 93096, "BSTAR": 0.0010393518, "MEAN_MOTION_DOT": 8.95e-06, "MEAN_MOTION_DDOT": 0}, "tle": {"line1": "1 29789U 99025CF  25354.76103098  .00000895  00000+0  10394-2 0  9993", "line2": "2 29789  99.4514 177.2174 0298315 258.5605 232.7158 13.54257877930961"}}, "geometry": {"type": "Point", "coordinates": [-178.80355570791548, -11.177956041906054]}}, {"type": "Feature", "properties": {"norad_id": 29790, "name": "FENGYUN 1C DEB", "group": "fengyun-1c-debris", "lat": 78.37394154655111, "lon": -136.92305197998667, "alt_km": 740.9291973668824, "timestamp": "2025-12-22T22:44:21.246765+00:00", "meta": {"OBJECT_NAME": "FENGYUN 1C DEB", "OBJECT_ID": "1999-025CG", "EPOCH": "2025-12-22T10:33:00.341856", "MEAN_MOTION": 14.32283494, "ECCENTRICITY": 0.00769293, "INCLINATION": 99.1477, "RA_OF_ASC_NODE": 350.9903, "ARG_OF_PERICENTER": 148.4525, "MEAN_ANOMALY": 212.1303, "EPHEMERIS_TYPE": 0, "CLASSIFICATION_TYPE": "U", "NORAD_CAT_ID": 29790, "ELEMENT_SET_NO": 999, "REV_AT_EPOCH": 98664, "BSTAR": 0.0002509489, "MEAN_MOTION_DOT": 6.51e-06, "MEAN_MOTION_DDOT": 0}, "tle": {"line1": "1 29790U 99025CG  25356.43958729  .00000651  00000+0  25095-3 0  9995", "line2": "2 29790  99.1477 350.9903 0076929 148.4525 212.1303 14.32283494986642"}}, "geometry": {"type": "Point", "coordinates": [-136.92305197998667, 78.37394154655111]}}, {"type": "Feature", "properties": {"norad_id": 29791, "name": "FENGYUN 1C DEB", "group": "fengyun-1c-debris", "lat": -78.55328886564783, "lon": 126.56363143937426, "alt_km": 723.875549182857, "timestamp": "2025-12-22T22:44:21.246776+00:00", "meta": {"OBJECT_NAME": "FENGYUN 1C DEB", "OBJECT_ID": "1999-025CH", "EPOCH": "2025-12-22T12:12:48.625632", "MEAN_MOTION": 14.58373383, "ECCENTRICITY": 0.00412668, "INCLINATION": 99.0363, "RA_OF_ASC_NODE": 357.8944, "ARG_OF_PERICENTER": 32.8926, "MEAN_ANOMALY": 89.1728, "EPHEMERIS_TYPE": 0, "CLASSIFICATION_TYPE": "U", "NORAD_CAT_ID": 29791, "ELEMENT_SET_NO": 999, "REV_AT_EPOCH": 98988, "BSTAR": 0.0016071443, "MEAN_MOTION_DOT": 7.483e-05, "MEAN_MOTION_DDOT": 0}, "tle": {"line1": "1 29791U 99025CH  25356.50889613  .00007483  00000+0  16071-2 0  9992", "line2": "2 29791  99.0363 357.8944 0041266  32.8926  89.1728 14.58373383989881"}}, "geometry": {"type": "Point", "coordinates": [126.56363143937426, -78.55328886564783]}}, {"type": "Feature", "properties": {"norad_id": 29792, "name": "FENGYUN 1C DEB", "group": "fengyun-1c-debris", "lat": 38.85619538248073, "lon": -125.54204638638228, "alt_km": 862.3336716121185, "timestamp": "2025-12-22T22:44:21.246786+00:00", "meta": {"OBJECT_NAME": "FENGYUN 1C DEB", "OBJECT_ID": "1999-025CJ", "EPOCH": "2025-12-22T01:43:04.391040", "MEAN_MOTION": 14.15198396, "ECCENTRICITY": 0.00475701, "INCLINATION": 98.7564, "RA_OF_ASC_NODE": 46.4654, "ARG_OF_PERICENTER": 9.1941, "MEAN_ANOMALY": 351.0093, "EPHEMERIS_TYPE": 0, "CLASSIFICATION_TYPE": "U", "NORAD_CAT_ID": 29792, "ELEMENT_SET_NO": 999, "REV_AT_EPOCH": 97071, "BSTAR": 0.0013283506, "MEAN_MOTION_DOT": 2.566e-05, "MEAN_MOTION_DDOT": 0}, "tle": {"line1": "1 29792U 99025CJ  25356.07157860  .00002566  00000+0  13284-2 0  9997", "line2": "2 29792  98.7564  46.4654 0047570   9.1941 351.0093 14.15198396970718"}}, "geometry": {"type": "Point", "coordinates": [-125.54204638638228, 38.85619538248073]}}, {"type": "Feature", "properties": {"norad_id": 29793, "name": "FENGYUN 1C DEB", "group": "fengyun-1c-debris", "lat": -37.08069096510656, "lon": -178.75845234647159, "alt_km": 794.6456277883699, "timestamp": "2025-12-22T22:44:21.246797+00:00", "meta": {"OBJECT_NAME": "FENGYUN 1C DEB", "OBJECT_ID": "1999-025CK", "EPOCH": "2025-12-22T11:10:39.244800", "MEAN_MOTION": 14.01106238, "ECCENTRICITY": 0.01435708, "INCLINATION": 98.3539, "RA_OF_ASC_NODE": 174.4247, "ARG_OF_PERICENTER": 310.57, "MEAN_ANOMALY": 103.0957, "EPHEMERIS_TYPE": 0, "CLASSIFICATION_TYPE": "U", "NORAD_CAT_ID": 29793, "ELEMENT_SET_NO": 999, "REV_AT_EPOCH": 96285, "BSTAR": 0.00088687558, "MEAN_MOTION_DOT": 1.416e-05, "MEAN_MOTION_DDOT": 0}, "tle": {"line1": "1 29793U 99025CK  25356.46573200  .00001416  00000+0  88688-3 0  9995", "line2": "2 29793  98.3539 174.4247 0143570 310.5700 103.0957 14.01106238962855"}}, "geometry": {"type": "Point", "coordinates": [-178.75845234647159, -37.08069096510656]}}, {"type": "Feature", "properties": {"norad_id": 29794, "name": "FENGYUN 1C DEB", "group": "fengyun-1c-debris", "lat": -21.257319062382717, "lon": -28.541173859577107, "alt_km": 979.606681720963, "timestamp": "2025-12-22T22:44:21.246807+00:00", "meta": {"OBJECT_NAME": "FENGYUN 1C DEB", "OBJECT_ID": "1999-025CL", "EPOCH": "2025-12-22T09:59:12.806016", "MEAN_MOTION": 14.09015877, "ECCENTRICITY": 0.01566943, "INCLINATION": 98.1999, "RA_OF_ASC_NODE": 154.1906, "ARG_OF_PERICENTER": 12.7188, "MEAN_ANOMALY": 15.2646, "EPHEMERIS_TYPE": 0, "CLASSIFICATION_TYPE": "U", "NORAD_CAT_ID": 29794, "ELEMENT_SET_NO": 999, "REV_AT_EPOCH": 96984, "BSTAR": 0.00044405139, "MEAN_MOTION_DOT": 8.23e-06, "MEAN_MOTION_DDOT": 0}, "tle": {"line1": "1 29794U 99025CL  25356.41612044  .00000823  00000+0  44405-3 0  9991", "line2": "2 29794  98.1999 154.1906 0156694  12.7188  15.2646 14.09015877969844"}}, "geometry": {"type": "Point", "coordinates": [-28.541173859577107, -21.257319062382717]}}]}